{
  "last_updated": "2026-01-13T06:00:03.044111",
  "satellites": {
    "98592": {
      "name": "DUTHSat-2",
      "norad_id": "98592",
      "tle": "1 64530U 25135C   26012.80018309  .00010701  00000-0  46580-3 0  9999\n2 64530  97.4483 129.4349 0005359  23.7977 336.3506 15.22397785 31250",
      "epoch": "2026-01-12T19:12:15.818976",
      "fetched_at": "2026-01-13T06:00:03.188740",
      "source": "satnogs"
    },
    "98530": {
      "name": "LAMARR",
      "norad_id": "98530",
      "tle": "1 66673U 25276H   26012.47488819  .00015895  00000-0  78463-3 0  9999\n2 66673  97.4334  88.6536 0006686 188.4859 171.6263 15.17952772  6788",
      "epoch": "2026-01-12T11:23:50.339616",
      "fetched_at": "2026-01-13T06:00:03.243460",
      "source": "satnogs"
    },
    "98529": {
      "name": "DIRAC",
      "norad_id": "98529",
      "tle": "1 66681U 25276R   26012.72963741  .00014511  00000-0  70872-3 0  9998\n2 66681  97.4309  88.9090 0005610 192.4717 167.6380 15.18351017  6827",
      "epoch": "2026-01-12T17:30:40.672224",
      "fetched_at": "2026-01-13T06:00:03.296334",
      "source": "satnogs"
    },
    "98518": {
      "name": "MICE-1",
      "norad_id": "98518",
      "tle": "1 66684U 25276U   26012.73479241  .00003965  00000-0  20016-3 0  9995\n2 66684  97.4450  88.9821 0006095 162.3986 197.7460 15.17668109  6826",
      "epoch": "2026-01-12T17:38:06.064224",
      "fetched_at": "2026-01-13T06:00:03.350537",
      "source": "satnogs"
    }
  },
  "fetch_log": [
    {
      "norad_id": "98592",
      "name": "DUTHSat-2",
      "status": "success",
      "source": "satnogs",
      "timestamp": "2026-01-13T06:00:03.188750"
    },
    {
      "norad_id": "98530",
      "name": "LAMARR",
      "status": "success",
      "source": "satnogs",
      "timestamp": "2026-01-13T06:00:03.243468"
    },
    {
      "norad_id": "98529",
      "name": "DIRAC",
      "status": "success",
      "source": "satnogs",
      "timestamp": "2026-01-13T06:00:03.296342"
    },
    {
      "norad_id": "98518",
      "name": "MICE-1",
      "status": "success",
      "source": "satnogs",
      "timestamp": "2026-01-13T06:00:03.350541"
    }
  ]
}